CYGFM05                 
1 41884U 16078A   17346.47960186  .00000399  00000-0  23330-4 0  9995
2 41884  34.9577 359.1640 0015913 134.2633 225.9387 15.13798561 54877
